{
    "links": {
        "self": "http://www.neowsapp.com/rest/v1/neo/3772983?api_key=iIulBulltgU6a56xZRHN4H3l9WmuAYTsLGpBGhQ2"
    },
    "id": "3772983",
    "neo_reference_id": "3772983",
    "name": "(2017 FM101)",
    "designation": "2017 FM101",
    "nasa_jpl_url": "http://ssd.jpl.nasa.gov/sbdb.cgi?sstr=3772983",
    "absolute_magnitude_h": 26.6,
    "estimated_diameter": {
        "kilometers": {
            "estimated_diameter_min": 0.0127219879,
            "estimated_diameter_max": 0.0284472297
        },
        "meters": {
            "estimated_diameter_min": 12.7219878539,
            "estimated_diameter_max": 28.4472296503
        },
        "miles": {
            "estimated_diameter_min": 0.0079050743,
            "estimated_diameter_max": 0.0176762835
        },
        "feet": {
            "estimated_diameter_min": 41.7388066307,
            "estimated_diameter_max": 93.330808926
        }
    },
    "is_potentially_hazardous_asteroid": false,
    "close_approach_data": [
        {
            "close_approach_date": "2006-03-28",
            "close_approach_date_full": "2006-Mar-28 19:05",
            "epoch_date_close_approach": 1143572700000,
            "relative_velocity": {
                "kilometers_per_second": "9.1271144316",
                "kilometers_per_hour": "32857.6119536496",
                "miles_per_hour": "20416.4422719774"
            },
            "miss_distance": {
                "astronomical": "0.0913976095",
                "lunar": "35.5536700955",
                "kilometers": "13672887.704291765",
                "miles": "8495938.457545757"
            },
            "orbiting_body": "Mars"
        },
        {
            "close_approach_date": "2017-04-04",
            "close_approach_date_full": "2017-Apr-04 18:50",
            "epoch_date_close_approach": 1491331800000,
            "relative_velocity": {
                "kilometers_per_second": "8.9577926898",
                "kilometers_per_hour": "32248.0536832354",
                "miles_per_hour": "20037.6864677859"
            },
            "miss_distance": {
                "astronomical": "0.0180599074",
                "lunar": "7.0253039786",
                "kilometers": "2701723.679437238",
                "miles": "1678773.2486523644"
            },
            "orbiting_body": "Earth"
        },
        {
            "close_approach_date": "2017-08-15",
            "close_approach_date_full": "2017-Aug-15 07:14",
            "epoch_date_close_approach": 1502781240000,
            "relative_velocity": {
                "kilometers_per_second": "3.5971081683",
                "kilometers_per_hour": "12949.5894060153",
                "miles_per_hour": "8046.3712617543"
            },
            "miss_distance": {
                "astronomical": "0.4241657525",
                "lunar": "165.0004777225",
                "kilometers": "63454293.100947175",
                "miles": "39428669.401234015"
            },
            "orbiting_body": "Earth"
        },
        {
            "close_approach_date": "2024-08-01",
            "close_approach_date_full": "2024-Aug-01 04:03",
            "epoch_date_close_approach": 1722484980000,
            "relative_velocity": {
                "kilometers_per_second": "14.0304322768",
                "kilometers_per_hour": "50509.5561966406",
                "miles_per_hour": "31384.6739600737"
            },
            "miss_distance": {
                "astronomical": "0.1894131042",
                "lunar": "73.6816975338",
                "kilometers": "28335796.938408054",
                "miles": "17607047.7678729852"
            },
            "orbiting_body": "Earth"
        }
    ],
    "orbital_data": {
        "orbit_id": "7",
        "orbit_determination_date": "2017-04-06 06:20:46",
        "first_observation_date": "2017-03-26",
        "last_observation_date": "2017-04-05",
        "data_arc_in_days": 10,
        "observations_used": 40,
        "orbit_uncertainty": "7",
        "minimum_orbit_intersection": ".00348641",
        "jupiter_tisserand_invariant": "4.536",
        "epoch_osculation": "2459000.5",
        "eccentricity": ".372070139740019",
        "semi_major_axis": "1.465014931705749",
        "inclination": "1.380092631369516",
        "ascending_node_longitude": "189.1445781590961",
        "orbital_period": "647.6815167926807",
        "perihelion_distance": ".9199266213447765",
        "perihelion_argument": "53.94387302089805",
        "aphelion_distance": "2.010103242066721",
        "perihelion_time": "2459182.066304376060",
        "mean_anomaly": "259.0802302047102",
        "mean_motion": ".5558287378381898",
        "equinox": "J2000",
        "orbit_class": {
            "orbit_class_type": "APO",
            "orbit_class_description": "Near-Earth asteroid orbits which cross the Earth’s orbit similar to that of 1862 Apollo",
            "orbit_class_range": "a (semi-major axis) > 1.0 AU; q (perihelion) < 1.017 AU"
        }
    },
    "is_sentry_object": false
}